STARLINK-35779          
1 67047U 25294T   26002.60106096 -.00319171  00000+0 -57799-2 0  9996
2 67047  43.0003  56.3472 0002108 254.5006 105.5621 15.49984203  4634
STARLINK-35905          
1 67048U 25294U   26002.91668981 -.02058850  00000+0 -48351-1 0  9996
2 67048  43.0009  54.5284 0001163 262.6296  50.3970 15.44782908  3617
STARLINK-35877          
1 67049U 25294V   26002.91668981  .00050149  00000+0  12016-2 0  9996
2 67049  43.0010  54.6026 0001358 287.1653 355.1928 15.40657344  3698
STARLINK-36078          
1 67050U 25294W   26002.85760667  .00092883  00000+0  15685-2 0  9991
2 67050  43.0003  54.8324 0000721 292.5534  67.5250 15.50612308  4679
STARLINK-35706          
1 67051U 25294X   26002.85726252  .00166423  00000+0  27783-2 0  9998
2 67051  43.0006  54.8282 0000860 292.5566  67.5203 15.50622913  4676
STARLINK-35720          
1 67052U 25294Y   26002.59925494  .00141296  00000+0  23678-2 0  9999
2 67052  43.0006  56.3324 0001448 254.9027 105.1673 15.50617303  4631
STARLINK-35739          
1 67053U 25294Z   26002.59891213  .00142643  00000+0  23902-2 0  9998
2 67053  43.0007  56.3299 0001484 261.6899  98.3793 15.50614572  4637
STARLINK-35754          
1 67054U 25294AA  26002.85623046  .00087187  00000+0  14746-2 0  9992
2 67054  43.0004  54.8200 0001343 275.4608  84.6099 15.50595701  4678
STARLINK-35790          
1 67055U 25294AB  26002.59822459  .00105814  00000+0  17832-2 0  9990
2 67055  43.0003  56.3228 0001624 260.9913  99.0763 15.50610647  4636
STARLINK-36143          
1 67056U 25294AC  26002.27516508 -.00184142  00000+0 -32411-2 0  9994
2 67056  43.0002  58.1981 0001273 265.4668  94.6047 15.50285346  4583
STARLINK-36141          
1 67057U 25294AD  26002.59755301  .00045612  00000+0  78063-3 0  9996
2 67057  43.0006  56.3183 0001393 271.7628  88.3073 15.50512095  4630
STARLINK-35767          
1 67058U 25294AE  26002.59788357  .00128914  00000+0  21646-2 0  9995
2 67058  43.0006  56.3210 0001401 254.7064 105.3641 15.50612710  4633
